OBJECT_NAME,OBJECT_ID,EPOCH,MEAN_MOTION,ECCENTRICITY,INCLINATION,RA_OF_ASC_NODE,ARG_OF_PERICENTER,MEAN_ANOMALY,EPHEMERIS_TYPE,CLASSIFICATION_TYPE,NORAD_CAT_ID,ELEMENT_SET_NO,REV_AT_EPOCH,BSTAR,MEAN_MOTION_DOT,MEAN_MOTION_DDOT
STARLINK-37998,2026-145C,2026-07-19T13:20:27.954240,15.75202974,.0001093,97.2821,47.6131,85.8208,274.3182,0,U,69679,999,386,.65809166E-3,.99231E-3,0
STARLINK-37994,2026-145D,2026-07-19T11:50:30.965280,15.76606668,.00041049,97.2836,47.5450,236.5773,123.5101,0,U,69680,999,385,.16177545E-2,.264664E-2,0
STARLINK-37992,2026-145E,2026-07-19T13:21:59.533056,15.75226458,.00010975,97.2839,47.6126,104.4482,255.6905,0,U,69681,999,386,.95716022E-3,.145319E-2,0
STARLINK-37997,2026-145F,2026-07-17T00:00:02.000160,15.75175815,.00011924,97.2838,44.9322,99.5818,174.9569,0,U,69682,999,471,-.22624739E-4,-.3501E-4,0
STARLINK-37990,2026-145G,2026-07-19T13:21:29.066688,15.75200713,.00006717,97.2823,47.6120,103.1718,256.9622,0,U,69683,999,386,.82331817E-3,.124535E-2,0
STARLINK-37951,2026-145H,2026-07-19T13:19:57.607968,15.75200094,.00003811,97.2834,47.6138,108.8369,251.2938,0,U,69684,999,386,.66024872E-3,.99547E-3,0
STARLINK-37957,2026-145J,2026-07-19T13:18:26.187264,15.75200467,.00014637,97.2839,47.6155,92.0002,268.1431,0,U,69685,999,386,.78297376E-3,.118341E-2,0
STARLINK-37968,2026-145K,2026-07-19T14:00:01.999872,15.69787704,.00021015,97.2843,47.6618,80.5830,107.6975,0,U,69686,999,513,-.23438539E-1,-.2444523E-1,0
STARLINK-37977,2026-145L,2026-07-19T13:08:46.737888,15.75204737,.00012442,97.2836,47.6256,87.1386,273.0021,0,U,69687,999,386,.64425397E-3,.97126E-3,0
STARLINK-37908,2026-145M,2026-07-19T13:05:44.552256,15.75106204,.00035854,97.2839,47.6288,3.1254,357.0033,0,U,69688,999,386,.38192988E-2,.609932E-2,0
STARLINK-37979,2026-145N,2026-07-19T00:53:31.139808,15.74987322,.0004064,97.2836,47.0963,329.7447,30.3583,0,U,69689,999,378,.12423645E-2,.187711E-2,0
STARLINK-37940,2026-145P,2026-07-19T14:00:01.999872,15.75239443,.00015531,97.2839,47.6743,86.3429,135.4720,0,U,69690,999,513,-.86153761E-3,-.127018E-2,0
STARLINK-37961,2026-145Q,2026-07-19T12:59:07.960704,15.75103371,.00012296,97.2842,47.6340,131.0284,229.1087,0,U,69691,999,386,.42417508E-3,.63371E-3,0
STARLINK-37787,2026-145R,2026-07-19T12:56:04.638048,15.75202120,.00008109,97.2838,47.6377,90.2004,269.9354,0,U,69692,999,386,.94385882E-3,.143109E-2,0
STARLINK-37962,2026-145S,2026-07-19T12:53:32.174016,15.75257788,.00010326,97.2841,47.6407,109.2198,250.9179,0,U,69693,999,386,.12582497E-2,.192397E-2,0
STARLINK-37953,2026-145T,2026-07-19T02:17:15.153792,15.75176117,.00028922,97.2820,47.1697,77.2614,282.8974,0,U,69694,999,379,.78738845E-3,.118908E-2,0
STARLINK-37926,2026-145U,2026-07-19T11:25:10.782336,15.75009236,.00018718,97.2833,47.5714,197.3074,162.8128,0,U,69695,999,385,.10686653E-2,.16105E-2,0
STARLINK-37959,2026-145V,2026-07-19T12:55:03.697536,15.75203497,.00007424,97.2842,47.6382,66.7292,293.4051,0,U,69696,999,386,.10206029E-2,.154982E-2,0
STARLINK-37976,2026-145W,2026-07-19T12:50:59.782560,15.75199672,.00008448,97.2843,47.6427,79.7595,280.3766,0,U,69697,999,386,.10020979E-2,.152093E-2,0
STARLINK-37912,2026-145X,2026-07-19T12:49:28.261632,15.75263091,.00014222,97.2834,47.6442,116.0489,244.0923,0,U,69698,999,386,.13241913E-2,.202783E-2,0
STARLINK-37974,2026-145Y,2026-07-19T11:16:58.631520,15.75242320,.00027301,97.2828,47.5793,50.3277,309.8229,0,U,69699,999,385,.73792169E-3,.111652E-2,0
STARLINK-37955,2026-145Z,2026-07-19T12:44:53.799072,15.75267856,.00013725,97.2845,47.6497,119.6656,240.4746,0,U,69700,999,386,.13447307E-2,.206052E-2,0
STRIX-8,2026-146A,2026-07-19T11:13:38.502336,15.04454903,.00065936,41.9906,349.4242,53.6046,306.5388,0,U,69701,999,342,.16696743E-3,.2185E-4,0
STARLINK-38055,2026-147A,2026-07-19T12:53:17.651904,15.80882360,.00000604,97.2823,237.1741,210.7917,149.3347,0,U,69704,999,454,.98035736E-3,.19243E-2,0
STARLINK-37898,2026-147B,2026-07-19T12:52:21.542016,15.79450824,.000147,97.2832,237.1754,46.8939,313.2451,0,U,69705,999,454,-.57121061E-2,-.925174E-2,0
STARLINK-37970,2026-147C,2026-07-19T12:51:30.045888,15.78951300,.0001618,97.2835,237.1768,64.0962,296.0472,0,U,69706,999,454,-.67359265E-2,-.1068727E-1,0
STARLINK-37975,2026-147D,2026-07-19T12:49:57.069120,15.80901716,.00010892,97.2838,237.1787,75.3437,284.7952,0,U,69707,999,454,.11224006E-2,.221256E-2,0
STARLINK-37972,2026-147E,2026-07-19T12:48:51.992640,15.80885275,.00005631,97.2835,237.1792,84.6454,275.4879,0,U,69708,999,454,.87698663E-3,.171731E-2,0
